IRIDIUM 63              
1 25286U 98021B   26027.38407221  .00000799  00000+0  26413-3 0  9990
2 25286  86.4013 348.0607 0001954  86.1854 273.9567 14.36785330456033
IRIDIUM 69              
1 25319U 98026A   26027.46854105  .00001100  00000+0  33440-3 0  9993
2 25319  86.3994   0.6022 0003443  42.7291 317.4176 14.41270400455365
IRIDIUM 71              
1 25320U 98026B   26027.45230226  .00000887  00000+0  26793-3 0  9990
2 25320  86.3999 355.2800 0004235  77.7980 282.3694 14.41361437455892
IRIDIUM 73              
1 25344U 98032C   26027.60634628  .00001066  00000+0  25863-3 0  9991
2 25344  86.4437 311.5031 0001902  68.5907 291.5502 14.52070349463128
IRIDIUM 82              
1 25467U 98051A   26027.39133030  .00072781  00000+0  11420-2 0  9990
2 25467  86.3600 358.0409 0058070 150.9227 209.5289 15.51446476458469
